IRIDIUM 126             
1 42809U 17039G   24313.51169793  .00001131  00000+0  39661-3 0  9990
2 42809  86.3994 238.3385 0002577  87.2805 272.8686 14.34217938386005
IRIDIUM 124             
1 42810U 17039H   24313.55344585  .00001653  00000+0  48533-3 0  9997
2 42810  86.4535 175.1630 0002044  72.8923 287.2501 14.43295199390646
IRIDIUM 128             
1 42811U 17039J   24313.64195579  .00000234  00000+0  76343-4 0  9990
2 42811  86.3934 269.8143 0002518  80.2199 279.9281 14.34220380386056
IRIDIUM 121             
1 42812U 17039K   24311.85627441  .00001424  00000+0  50133-3 0  9990
2 42812  86.3986 239.0552 0002396  84.8076 275.3393 14.34216412385767
IRIDIUM 133             
1 42955U 17061A   24313.81321763  .00000061  00000+0  14880-4 0  9995
2 42955  86.3939 269.8457 0002205  86.4971 273.6477 14.34217238370876
IRIDIUM 100             
1 42956U 17061B   24313.80688148  .00000068  00000+0  17208-4 0  9992
2 42956  86.3940 269.7812 0002560  81.1862 278.9623 14.34218915370872
IRIDIUM 122             
1 42957U 17061C   24314.12401479  .00000388  00000+0  13155-3 0  9990
2 42957  86.3936 269.6472 0002552  85.5669 274.5818 14.34217091370921
IRIDIUM 129             
1 42958U 17061D   24313.73077684  .00000062  00000+0  14977-4 0  9997
2 42958  86.3940 269.8724 0002187  93.8192 266.3254 14.34214408370883
